{"type": "FeatureCollection", "features": [ {"type": "Feature", "properties": {"norad_id": 59598, "name": "GSAT0225 (GALILEO 29)", "group": "gnss", "lat": 53.9171566523999, "lon": -147.54026674009083, "alt_km": 23214.44412573282, "timestamp": "2025-12-11T20:41:15.325380+00:00", "meta": {"OBJECT_NAME": "GSAT0225 (GALILEO 29)", "OBJECT_ID": "2024-079A", "EPOCH": "2025-12-10T12:47:07.958400", "MEAN_MOTION": 1.70474727, "ECCENTRICITY": 0.00020453, "INCLINATION": 55.0006, "RA_OF_ASC_NODE": 106.3566, "ARG_OF_PERICENTER": 176.2356, "MEAN_ANOMALY": 187.363, "EPHEMERIS_TYPE": 0, "CLASSIFICATION_TYPE": "U", "NORAD_CAT_ID": 59598, "ELEMENT_SET_NO": 999, "REV_AT_EPOCH": 1010, "BSTAR": 0, "MEAN_MOTION_DOT": 1e-07, "MEAN_MOTION_DDOT": 0}, "tle": {"line1": "1 59598U 24079A   25344.53273100  .00000010  00000+0  00000+0 0  9996", "line2": "2 59598  55.0006 106.3566 0002045 176.2356 187.3630  1.70474727 10101"}}, "geometry": {"type": "Point", "coordinates": [-147.54026674009083, 53.9171566523999]}}, {"type": "Feature", "properties": {"norad_id": 59600, "name": "GSAT0227 (GALILEO 30)", "group": "gnss", "lat": -10.734105883979284, "lon": 98.68096129160215, "alt_km": 23229.588495897216, "timestamp": "2025-12-11T20:41:15.325392+00:00", "meta": {"OBJECT_NAME": "GSAT0227 (GALILEO 30)", "OBJECT_ID": "2024-079C", "EPOCH": "2025-12-08T22:48:42.234912", "MEAN_MOTION": 1.70474719, "ECCENTRICITY": 0.0003262, "INCLINATION": 54.9946, "RA_OF_ASC_NODE": 106.4003, "ARG_OF_PERICENTER": 114.182, "MEAN_ANOMALY": 245.816, "EPHEMERIS_TYPE": 0, "CLASSIFICATION_TYPE": "U", "NORAD_CAT_ID": 59600, "ELEMENT_SET_NO": 999, "REV_AT_EPOCH": 1012, "BSTAR": 0, "MEAN_MOTION_DOT": 9e-08, "MEAN_MOTION_DDOT": 0}, "tle": {"line1": "1 59600U 24079C   25342.95048883  .00000009  00000+0  00000+0 0  9990", "line2": "2 59600  54.9946 106.4003 0003262 114.1820 245.8160  1.70474719 10123"}}, "geometry": {"type": "Point", "coordinates": [98.68096129160215, -10.734105883979284]}}, {"type": "Feature", "properties": {"norad_id": 61182, "name": "GSAT0232 (GALILEO 32)", "group": "gnss", "lat": -1.1131272380626718, "lon": 47.23477415042204, "alt_km": 23217.668474024285, "timestamp": "2025-12-11T20:41:15.325405+00:00", "meta": {"OBJECT_NAME": "GSAT0232 (GALILEO 32)", "OBJECT_ID": "2024-167A", "EPOCH": "2025-12-10T16:21:03.753216", "MEAN_MOTION": 1.70473375, "ECCENTRICITY": 0.00019436, "INCLINATION": 55.2414, "RA_OF_ASC_NODE": 226.4872, "ARG_OF_PERICENTER": 211.0668, "MEAN_ANOMALY": 325.7159, "EPHEMERIS_TYPE": 0, "CLASSIFICATION_TYPE": "U", "NORAD_CAT_ID": 61182, "ELEMENT_SET_NO": 999, "REV_AT_EPOCH": 766, "BSTAR": 0, "MEAN_MOTION_DOT": 9e-08, "MEAN_MOTION_DDOT": 0}, "tle": {"line1": "1 61182U 24167A   25344.68129344  .00000009  00000+0  00000+0 0  9990", "line2": "2 61182  55.2414 226.4872 0001943 211.0668 325.7159  1.70473375  7661"}}, "geometry": {"type": "Point", "coordinates": [47.23477415042204, -1.1131272380626718]}}, {"type": "Feature", "properties": {"norad_id": 61183, "name": "GSAT0226 (GALILEO 31)", "group": "gnss", "lat": -48.64512888679071, "lon": 174.44736494381877, "alt_km": 23230.083580146085, "timestamp": "2025-12-11T20:41:15.325417+00:00", "meta": {"OBJECT_NAME": "GSAT0226 (GALILEO 31)", "OBJECT_ID": "2024-167B", "EPOCH": "2025-12-09T21:57:08.318304", "MEAN_MOTION": 1.70473488, "ECCENTRICITY": 8.079e-05, "INCLINATION": 55.2402, "RA_OF_ASC_NODE": 226.5136, "ARG_OF_PERICENTER": 118.4795, "MEAN_ANOMALY": 60.4734, "EPHEMERIS_TYPE": 0, "CLASSIFICATION_TYPE": "U", "NORAD_CAT_ID": 61183, "ELEMENT_SET_NO": 999, "REV_AT_EPOCH": 762, "BSTAR": 0, "MEAN_MOTION_DOT": 1e-07, "MEAN_MOTION_DDOT": 0}, "tle": {"line1": "1 61183U 24167B   25343.91467961  .00000010  00000+0  00000+0 0  9998", "line2": "2 61183  55.2402 226.5136 0000807 118.4795  60.4734  1.70473488  7625"}}, "geometry": {"type": "Point", "coordinates": [174.44736494381877, -48.64512888679071]}}, {"type": "Feature", "properties": {"norad_id": 61186, "name": "BEIDOU-3 M25 (C47)", "group": "gnss", "lat": -36.14775258106001, "lon": 159.9518432409602, "alt_km": 21527.343609650634, "timestamp": "2025-12-11T20:41:15.325433+00:00", "meta": {"OBJECT_NAME": "BEIDOU-3 M25 (C47)", "OBJECT_ID": "2024-168B", "EPOCH": "2025-12-09T12:38:32.089056", "MEAN_MOTION": 1.86229941, "ECCENTRICITY": 0.0005432, "INCLINATION": 54.6447, "RA_OF_ASC_NODE": 308.8306, "ARG_OF_PERICENTER": 296.174, "MEAN_ANOMALY": 164.5169, "EPHEMERIS_TYPE": 0, "CLASSIFICATION_TYPE": "U", "NORAD_CAT_ID": 61186, "ELEMENT_SET_NO": 999, "REV_AT_EPOCH": 825, "BSTAR": 0, "MEAN_MOTION_DOT": -7.8e-07, "MEAN_MOTION_DDOT": 0}, "tle": {"line1": "1 61186U 24168B   25343.52676029 -.00000078  00000+0  00000+0 0  9991", "line2": "2 61186  54.6447 308.8306 0005432 296.1740 164.5169  1.86229941  8254"}}, "geometry": {"type": "Point", "coordinates": [159.9518432409602, -36.14775258106001]}}, {"type": "Feature", "properties": {"norad_id": 61187, "name": "BEIDOU-3 M27 (C49)", "group": "gnss", "lat": 1.0566346079803535, "lon": -50.534024559545124, "alt_km": 21522.384177776163, "timestamp": "2025-12-11T20:41:15.325444+00:00", "meta": {"OBJECT_NAME": "BEIDOU-3 M27 (C49)", "OBJECT_ID": "2024-168C", "EPOCH": "2025-12-10T08:23:50.553888", "MEAN_MOTION": 1.86230151, "ECCENTRICITY": 0.00023508, "INCLINATION": 54.6394, "RA_OF_ASC_NODE": 308.7857, "ARG_OF_PERICENTER": 335.0567, "MEAN_ANOMALY": 92.4403, "EPHEMERIS_TYPE": 0, "CLASSIFICATION_TYPE": "U", "NORAD_CAT_ID": 61187, "ELEMENT_SET_NO": 999, "REV_AT_EPOCH": 574, "BSTAR": 0, "MEAN_MOTION_DOT": -8.2e-07, "MEAN_MOTION_DDOT": 0}, "tle": {"line1": "1 61187U 24168C   25344.34989067 -.00000082  00000+0  00000+0 0  9997", "line2": "2 61187  54.6394 308.7857 0002350 335.0567  92.4403  1.86230151  5748"}}, "geometry": {"type": "Point", "coordinates": [-50.534024559545124, 1.0566346079803535]}}, {"type": "Feature", "properties": {"norad_id": 62339, "name": "GPS BIII-7  (PRN 01)", "group": "gnss", "lat": -10.771896507378681, "lon": -25.91003349328413, "alt_km": 20151.358463147066, "timestamp": "2025-12-11T20:41:15.325457+00:00", "meta": {"OBJECT_NAME": "GPS BIII-7  (PRN 01)", "OBJECT_ID": "2024-242A", "EPOCH": "2025-12-10T14:03:42.090048", "MEAN_MOTION": 2.00567746, "ECCENTRICITY": 0.0012131, "INCLINATION": 54.9242, "RA_OF_ASC_NODE": 341.8267, "ARG_OF_PERICENTER": 344.331, "MEAN_ANOMALY": 161.0631, "EPHEMERIS_TYPE": 0, "CLASSIFICATION_TYPE": "U", "NORAD_CAT_ID": 62339, "ELEMENT_SET_NO": 999, "REV_AT_EPOCH": 747, "BSTAR": 0, "MEAN_MOTION_DOT": -9e-07, "MEAN_MOTION_DDOT": 0}, "tle": {"line1": "1 62339U 24242A   25344.58590382 -.00000090  00000+0  00000+0 0  9993", "line2": "2 62339  54.9242 341.8267 0012131 344.3310 161.0631  2.00567746  7471"}}, "geometry": {"type": "Point", "coordinates": [-25.91003349328413, -10.771896507378681]}}, {"type": "Feature", "properties": {"norad_id": 62850, "name": "NVS-02 (IRNSS-1K)", "group": "gnss", "lat": -8.916116847861629, "lon": 172.11494854656505, "alt_km": 37237.15121383328, "timestamp": "2025-12-11T20:41:15.325469+00:00", "meta": {"OBJECT_NAME": "NVS-02 (IRNSS-1K)", "OBJECT_ID": "2025-020A", "EPOCH": "2025-12-11T04:04:05.894688", "MEAN_MOTION": 2.17592713, "ECCENTRICITY": 0.73479478, "INCLINATION": 20.9874, "RA_OF_ASC_NODE": 328.2282, "ARG_OF_PERICENTER": 25.2136, "MEAN_ANOMALY": 357.3341, "EPHEMERIS_TYPE": 0, "CLASSIFICATION_TYPE": "U", "NORAD_CAT_ID": 62850, "ELEMENT_SET_NO": 999, "REV_AT_EPOCH": 688, "BSTAR": 0.00036872172, "MEAN_MOTION_DOT": 2.82e-06, "MEAN_MOTION_DDOT": 0}, "tle": {"line1": "1 62850U 25020A   25345.16951267  .00000282  00000+0  36872-3 0  9996", "line2": "2 62850  20.9874 328.2282 7347947  25.2136 357.3341  2.17592713  6885"}}, "geometry": {"type": "Point", "coordinates": [172.11494854656505, -8.916116847861629]}}, {"type": "Feature", "properties": {"norad_id": 62876, "name": "QZS-6 (QZSS/PRN 200)", "group": "gnss", "lat": 0.03403869642255609, "lon": 121.59848816552125, "alt_km": 35791.42590014927, "timestamp": "2025-12-11T20:41:15.325481+00:00", "meta": {"OBJECT_NAME": "QZS-6 (QZSS/PRN 200)", "OBJECT_ID": "2025-023A", "EPOCH": "2025-12-11T13:56:27.594816", "MEAN_MOTION": 1.00274801, "ECCENTRICITY": 0.00017453, "INCLINATION": 0.0282, "RA_OF_ASC_NODE": 49.5878, "ARG_OF_PERICENTER": 218.7273, "MEAN_ANOMALY": 111.8201, "EPHEMERIS_TYPE": 0, "CLASSIFICATION_TYPE": "U", "NORAD_CAT_ID": 62876, "ELEMENT_SET_NO": 999, "REV_AT_EPOCH": 307, "BSTAR": 0, "MEAN_MOTION_DOT": -2.26e-06, "MEAN_MOTION_DDOT": 0}, "tle": {"line1": "1 62876U 25023A   25345.58087494 -.00000226  00000+0  00000+0 0  9994", "line2": "2 62876   0.0282  49.5878 0001745 218.7273 111.8201  1.00274801  3078"}}, "geometry": {"type": "Point", "coordinates": [121.59848816552125, 0.03403869642255609]}}, {"type": "Feature", "properties": {"norad_id": 63130, "name": "COSMOS 2584 (704K)", "group": "gnss", "lat": -30.544594197598983, "lon": 63.20364262214621, "alt_km": 19140.57980335001, "timestamp": "2025-12-11T20:41:15.325495+00:00", "meta": {"OBJECT_NAME": "COSMOS 2584 (704K)", "OBJECT_ID": "2025-042A", "EPOCH": "2025-12-08T03:39:29.178720", "MEAN_MOTION": 2.13102925, "ECCENTRICITY": 0.0007602, "INCLINATION": 64.9737, "RA_OF_ASC_NODE": 79.3022, "ARG_OF_PERICENTER": 215.9611, "MEAN_ANOMALY": 144.0025, "EPHEMERIS_TYPE": 0, "CLASSIFICATION_TYPE": "U", "NORAD_CAT_ID": 63130, "ELEMENT_SET_NO": 999, "REV_AT_EPOCH": 597, "BSTAR": 0, "MEAN_MOTION_DOT": -1.2e-07, "MEAN_MOTION_DDOT": 0}, "tle": {"line1": "1 63130U 25042A   25342.15242105 -.00000012  00000+0  00000+0 0  9994", "line2": "2 63130  64.9737  79.3022 0007602 215.9611 144.0025  2.13102925  5976"}}, "geometry": {"type": "Point", "coordinates": [63.20364262214621, -30.544594197598983]}}]}